CSS (TIANHE)            
1 48274U 21035A   24048.31047334  .00044510  00000+0  45688-3 0  9996
2 48274  41.4686 101.6746 0006563  35.4456 324.6819 15.64096373160170
